*******************************************************************************
JPL/HORIZONS                  4 Vesta (A807 FA)            2022-May-08 12:44:34
Rec #:       4 (+COV) Soln.date: 2021-Apr-13_11:15:57   # obs: 9451 (1950-2021)
 
IAU76/J2000 helio. ecliptic osc. elements (au, days, deg., period=Julian yrs):
 
  EPOCH=  2458849.5 ! 2020-Jan-01.00 (TDB)         Residual RMS= .47385
   EC= .08857261385730482  QR= 2.15270823108896    TP= 2458247.8038331456
   OM= 103.8092892453337   W=  150.8357762126256   IN= 7.14181494423702
   A= 2.361908654291772    MA= 163.3754032354997   ADIST= 2.571109077494583
   PER= 3.62997            N= .271524746           ANGMOM= .026333145
   DAN= 2.53982            DDN= 2.17514            L= 254.8345779
   B= 3.4734313            MOID= 1.13987994        TP= 2018-May-09.3038331456
 
Asteroid physical parameters (km, seconds, rotational period in hours):
   GM= 17.28824            RAD= 262.7              ROTPER= 5.342128
   H= 3.4                  G= .320                 B-V= .782
                           ALBEDO= .4228           STYP= V
 
ASTEROID comments: 
1: soln ref.= JPL#36, OCC=0           radar(2977 delay, 0 Dop
2: source=ORB
*******************************************************************************


*******************************************************************************
Ephemeris / WWW_USER Sun May  8 12:44:34 2022 Pasadena, USA      / Horizons
*******************************************************************************
Target body name: 4 Vesta (A807 FA)               {source: JPL#36}
Center body name: Solar System Barycenter (0)     {source: DE441}
Center-site name: BODY CENTER
*******************************************************************************
Start time      : A.D. 1800-Jan-01 00:00:00.0000 TDB
Stop  time      : A.D. 2200-Jan-01 00:00:00.0000 TDB
Step-size       : 14400 minutes
*******************************************************************************
Center geodetic : 0.00000000,0.00000000,0.0000000 {E-lon(deg),Lat(deg),Alt(km)}
Center cylindric: 0.00000000,0.00000000,0.0000000 {E-lon(deg),Dxy(km),Dz(km)}
Center radii    : (undefined)                                                  
Small perturbers: Yes                             {source: SB441-N16}
Output units    : AU-D
Output type     : GEOMETRIC cartesian states
Output format   : 2 (position and velocity)
Reference frame : ICRF
*******************************************************************************
Initial IAU76/J2000 heliocentric ecliptic osculating elements (au, days, deg.):
  EPOCH=  2458849.5 ! 2020-Jan-01.00 (TDB)         Residual RMS= .47385        
   EC= .08857261385730482  QR= 2.15270823108896    TP= 2458247.8038331456      
   OM= 103.8092892453337   W=  150.8357762126256   IN= 7.14181494423702        
  Equivalent ICRF heliocentric cartesian coordinates (au, au/d):
   X= 1.243605461680222E+00  Y= 2.133870405923554E+00  Z= 6.874866847781977E-01
  VX=-8.779290950353064E-03 VY= 4.462599423343603E-03 VZ= 2.927653651039283E-03
Asteroid physical parameters (km, seconds, rotational period in hours):        
   GM= 17.28824            RAD= 262.7              ROTPER= 5.342128            
   H= 3.4                  G= .320                 B-V= .782                   
                           ALBEDO= .4228           STYP= V                     
*******************************************************************************
JDTDB
   X     Y     Z
   VX    VY    VZ
*******************************************************************************
$$SOE
2454996.500000000 = A.D. 2009-Jun-14 00:00:00.0000 TDB 
 X = 3.631664495781107E-02 Y = 2.385983265427806E+00 Z = 9.451977793980080E-01
 VX=-1.020689583545250E-02 VY=-5.587937190764453E-04 VZ= 1.111108463735846E-03
2455006.500000000 = A.D. 2009-Jun-24 00:00:00.0000 TDB 
 X =-6.575683894014220E-02 Y = 2.378300588079228E+00 Z = 9.554752319537450E-01
 VX=-1.020480518404859E-02 VY=-9.777476349378145E-04 VZ= 9.439880840382177E-04
2455016.500000000 = A.D. 2009-Jul-04 00:00:00.0000 TDB 
 X =-1.677193536221830E-01 Y = 2.366429119208694E+00 Z = 9.640700050495722E-01
 VX=-1.018468323267412E-02 VY=-1.396459305017676E-03 VZ= 7.746070459725657E-04
2455026.500000000 = A.D. 2009-Jul-14 00:00:00.0000 TDB 
 X =-2.693900351269012E-01 Y = 2.350374078437148E+00 Z = 9.709605340925594E-01
 VX=-1.014642099290988E-02 VY=-1.814367701351727E-03 VZ= 6.031745405094297E-04
2455036.500000000 = A.D. 2009-Jul-24 00:00:00.0000 TDB 
 X =-3.705869668384392E-01 Y = 2.330146345221530E+00 Z = 9.761273710035773E-01
 VX=-1.008991703728574E-02 VY=-2.230901717251736E-03 VZ= 4.299047611944754E-04
2455046.500000000 = A.D. 2009-Aug-03 00:00:00.0000 TDB 
 X =-4.711272587817895E-01 Y = 2.305762564568705E+00 Z = 9.795532366929379E-01
 VX=-1.001507826200128E-02 VY=-2.645479189305436E-03 VZ= 2.550173947026998E-04
2455056.500000000 = A.D. 2009-Aug-13 00:00:00.0000 TDB 
 X =-5.708271353299443E-01 Y = 2.277245262427981E+00 Z = 9.812230784960789E-01
 VX=-9.921820804627958E-03 VY=-3.057505930901010E-03 VZ= 7.873812479698150E-05
2455066.500000000 = A.D. 2009-Aug-23 00:00:00.0000 TDB 
 X =-6.695020327583026E-01 Y = 2.244622970715920E+00 Z = 9.811241327153526E-01
 VX=-9.810071094779825E-03 VY=-3.466374779857721E-03 VZ=-9.870085284068902E-05
2455076.500000000 = A.D. 2009-Sep-02 00:00:00.0000 TDB 
 X =-7.669667080194589E-01 Y = 2.207930361665409E+00 Z = 9.792459923280273E-01
 VX=-9.679767050384746E-03 VY=-3.871464686204874E-03 VZ=-2.770603120623697E-04
2455086.500000000 = A.D. 2009-Sep-12 00:00:00.0000 TDB 
 X =-8.630353602375204E-01 Y = 2.167208391105360E+00 Z = 9.755806799042269E-01
 VX=-9.530859424307783E-03 VY=-4.272139838752390E-03 VZ=-4.560934729789039E-04
2455096.500000000 = A.D. 2009-Sep-22 00:00:00.0000 TDB 
 X =-9.575217663769302E-01 Y = 2.122504450230852E+00 Z = 9.701227257622963E-01
 VX=-9.363313290348332E-03 VY=-4.667748844943718E-03 VZ=-6.355454795228042E-04
2455106.500000000 = A.D. 2009-Oct-02 00:00:00.0000 TDB 
 X =-1.050239432432788E+00 Y = 2.073872525155145E+00 Z = 9.628692512831444E-01
 VX=-9.177109662807730E-03 VY=-5.057624002322899E-03 VZ=-8.151528931905146E-04
2455116.500000000 = A.D. 2009-Oct-12 00:00:00.0000 TDB 
 X =-1.141001761596463E+00 Y = 2.021373363136129E+00 Z = 9.538200571451730E-01
 VX=-8.972247280644842E-03 VY=-5.441080693071138E-03 VZ=-9.946432154887286E-04
2455126.500000000 = A.D. 2009-Oct-22 00:00:00.0000 TDB 
 X =-1.229622241262430E+00 Y = 1.965074644329193E+00 Z = 9.429777162282660E-01
 VX=-8.748744591831349E-03 VY=-5.817416878783886E-03 VZ=-1.173734429309285E-03
2455136.500000000 = A.D. 2009-Nov-01 00:00:00.0000 TDB 
 X =-1.315914650803221E+00 Y = 1.905051158090213E+00 Z = 9.303476710186641E-01
 VX=-8.506641921482424E-03 VY=-6.185912701420992E-03 VZ=-1.352134559147960E-03
2455146.500000000 = A.D. 2009-Nov-11 00:00:00.0000 TDB 
 X =-1.399693291998206E+00 Y = 1.841384982706328E+00 Z = 9.159383353108511E-01
 VX=-8.246003834551515E-03 VY=-6.545830192343218E-03 VZ=-1.529541249954344E-03
2455156.500000000 = A.D. 2009-Nov-21 00:00:00.0000 TDB 
 X =-1.480773243939653E+00 Y = 1.774165667473857E+00 Z = 8.997612000122845E-01
 VX=-7.966921662209624E-03 VY=-6.896413104572841E-03 VZ=-1.705641372076507E-03
2455166.500000000 = A.D. 2009-Dec-01 00:00:00.0000 TDB 
 X =-1.558970643973297E+00 Y = 1.703490415564426E+00 Z = 8.818309426589404E-01
 VX=-7.669516185235942E-03 VY=-7.236886929902730E-03 VZ=-1.880110676977415E-03
2455176.500000000 = A.D. 2009-Dec-11 00:00:00.0000 TDB 
 X =-1.634102996319452E+00 Y = 1.629464265682437E+00 Z = 8.621655400730670E-01
 VX=-7.353940487706926E-03 VY=-7.566459126337710E-03 VZ=-2.052613514285553E-03
2455186.500000000 = A.D. 2009-Dec-21 00:00:00.0000 TDB 
 X =-1.705989510085272E+00 Y = 1.552200270319475E+00 Z = 8.407863835108480E-01
 VX=-7.020382980693547E-03 VY=-7.884319574911182E-03 VZ=-2.222802618319370E-03
2455196.500000000 = A.D. 2009-Dec-31 00:00:00.0000 TDB 
 X =-1.774451468334477E+00 Y = 1.471819668191722E+00 Z = 8.177183955536924E-01
 VX=-6.669070588639549E-03 VY=-8.189641290986267E-03 VZ=-2.390318974877904E-03
2455206.500000000 = A.D. 2010-Jan-10 00:00:00.0000 TDB 
 X =-1.839312629814480E+00 Y = 1.388452048174136E+00 Z = 7.929901478796049E-01
 VX=-6.300272095229528E-03 VY=-8.481581417208469E-03 VZ=-2.554791779923699E-03
2455216.500000000 = A.D. 2010-Jan-20 00:00:00.0000 TDB 
 X =-1.900399664941937E+00 Y = 1.302235501853626E+00 Z = 7.666339789727146E-01
 VX=-5.914301644128858E-03 VY=-8.759282507549777E-03 VZ=-2.715838493534860E-03
2455226.500000000 = A.D. 2010-Jan-30 00:00:00.0000 TDB 
 X =-1.957542627323206E+00 Y = 1.213316761647947E+00 Z = 7.386861107519923E-01
 VX=-5.511522335386975E-03 VY=-9.021874143247323E-03 VZ=-2.873065008401194E-03
2455236.500000000 = A.D. 2010-Feb-09 00:00:00.0000 TDB 
 X =-2.010575461670740E+00 Y = 1.121851320851178E+00 Z = 7.091867628181404E-01
 VX=-5.092349912979383E-03 VY=-9.268474931979669E-03 VZ=-3.026065958271885E-03
2455246.500000000 = A.D. 2010-Feb-19 00:00:00.0000 TDB 
 X =-2.059336548997138E+00 Y = 1.028003531805415E+00 Z = 6.781802629158957E-01
 VX=-4.657256520104481E-03 VY=-9.498194886820374E-03 VZ=-3.174425169087228E-03
2455256.500000000 = A.D. 2010-Mar-01 00:00:00.0000 TDB 
 X =-2.103669289394554E+00 Y = 9.319466781857239E-01 Z = 6.457151520485374E-01
 VX=-4.206774453164397E-03 VY=-9.710138235115986E-03 VZ=-3.317716283500510E-03
2455266.500000000 = A.D. 2010-Mar-11 00:00:00.0000 TDB 
 X =-2.143422722217180E+00 Y = 8.338630168287104E-01 Z = 6.118442823554081E-01
 VX=-3.741499885173917E-03 VY=-9.903406706884227E-03 VZ=-3.455503586935242E-03
2455276.500000000 = A.D. 2010-Mar-21 00:00:00.0000 TDB 
 X =-2.178452183256320E+00 Y = 7.339437841656404E-01 Z = 5.766249056674023E-01
 VX=-3.262096536016594E-03 VY=-1.007710332809355E-02 VZ=-3.587343046808776E-03
2455286.500000000 = A.D. 2010-Mar-31 00:00:00.0000 TDB 
 X =-2.208619998183925E+00 Y = 6.323891621547036E-01 Z = 5.401187505895109E-01
 VX=-2.769299245995865E-03 VY=-1.023033672871129E-02 VZ=-3.712783568671159E-03
